[{"OBJECT_NAME":"ONEWEB-0694","OBJECT_ID":"2023-068N","EPOCH":"2025-12-02T05:25:53.698944","MEAN_MOTION":13.16594189,"ECCENTRICITY":0.00013615,"INCLINATION":87.9048,"RA_OF_ASC_NODE":267.9581,"ARG_OF_PERICENTER":67.9383,"MEAN_ANOMALY":292.1892,"EPHEMERIS_TYPE":0,"CLASSIFICATION_TYPE":"U","NORAD_CAT_ID":56722,"ELEMENT_SET_NO":999,"REV_AT_EPOCH":12585,"BSTAR":-0.00017319638,"MEAN_MOTION_DOT":-5.3e-7,"MEAN_MOTION_DDOT":0},{"OBJECT_NAME":"ONEWEB-0696","OBJECT_ID":"2023-068P","EPOCH":"2025-12-02T06:14:45.618144","MEAN_MOTION":13.15548033,"ECCENTRICITY":0.00021716,"INCLINATION":87.8975,"RA_OF_ASC_NODE":298.5244,"ARG_OF_PERICENTER":81.1734,"MEAN_ANOMALY":278.9642,"EPHEMERIS_TYPE":0,"CLASSIFICATION_TYPE":"U","NORAD_CAT_ID":56723,"ELEMENT_SET_NO":999,"REV_AT_EPOCH":12347,"BSTAR":5.793146e-5,"MEAN_MOTION_DOT":3.5e-7,"MEAN_MOTION_DDOT":0},{"OBJECT_NAME":"ONEWEB-0703","OBJECT_ID":"2023-068Q","EPOCH":"2025-12-02T06:28:27.255360","MEAN_MOTION":13.15548897,"ECCENTRICITY":0.00028175,"INCLINATION":87.8973,"RA_OF_ASC_NODE":298.5044,"ARG_OF_PERICENTER":90.4581,"MEAN_ANOMALY":269.6872,"EPHEMERIS_TYPE":0,"CLASSIFICATION_TYPE":"U","NORAD_CAT_ID":56724,"ELEMENT_SET_NO":999,"REV_AT_EPOCH":12336,"BSTAR":0.00027657682,"MEAN_MOTION_DOT":1.17e-6,"MEAN_MOTION_DDOT":0},{"OBJECT_NAME":"ONEWEB-0721","OBJECT_ID":"2023-068R","EPOCH":"2025-12-02T04:45:01.665216","MEAN_MOTION":13.22452952,"ECCENTRICITY":0.00014025,"INCLINATION":86.6792,"RA_OF_ASC_NODE":148.3537,"ARG_OF_PERICENTER":91.7447,"MEAN_ANOMALY":268.3847,"EPHEMERIS_TYPE":0,"CLASSIFICATION_TYPE":"U","NORAD_CAT_ID":56725,"ELEMENT_SET_NO":999,"REV_AT_EPOCH":13190,"BSTAR":0.00022163059,"MEAN_MOTION_DOT":1.07e-6,"MEAN_MOTION_DDOT":0},{"OBJECT_NAME":"ONEWEB-0015","OBJECT_ID":"2024-188A","EPOCH":"2025-12-02T05:38:16.461600","MEAN_MOTION":13.11416431,"ECCENTRICITY":0.00016896,"INCLINATION":87.8861,"RA_OF_ASC_NODE":60.321,"ARG_OF_PERICENTER":123.9832,"MEAN_ANOMALY":236.1457,"EPHEMERIS_TYPE":0,"CLASSIFICATION_TYPE":"U","NORAD_CAT_ID":61594,"ELEMENT_SET_NO":999,"REV_AT_EPOCH":5864,"BSTAR":0.0014167212,"MEAN_MOTION_DOT":5.15e-6,"MEAN_MOTION_DDOT":0},{"OBJECT_NAME":"ONEWEB-0687","OBJECT_ID":"2024-188B","EPOCH":"2025-12-02T06:03:23.398560","MEAN_MOTION":13.17651756,"ECCENTRICITY":0.00012251,"INCLINATION":87.9107,"RA_OF_ASC_NODE":45.0597,"ARG_OF_PERICENTER":114.21,"MEAN_ANOMALY":245.916,"EPHEMERIS_TYPE":0,"CLASSIFICATION_TYPE":"U","NORAD_CAT_ID":61595,"ELEMENT_SET_NO":999,"REV_AT_EPOCH":5996,"BSTAR":0.00028452311,"MEAN_MOTION_DOT":1.23e-6,"MEAN_MOTION_DDOT":0},{"OBJECT_NAME":"ONEWEB-0688","OBJECT_ID":"2024-188C","EPOCH":"2025-12-02T04:55:20.996832","MEAN_MOTION":13.17648826,"ECCENTRICITY":0.00019095,"INCLINATION":87.9113,"RA_OF_ASC_NODE":45.0699,"ARG_OF_PERICENTER":143.3326,"MEAN_ANOMALY":216.7936,"EPHEMERIS_TYPE":0,"CLASSIFICATION_TYPE":"U","NORAD_CAT_ID":61596,"ELEMENT_SET_NO":999,"REV_AT_EPOCH":5995,"BSTAR":0.00032456696,"MEAN_MOTION_DOT":1.39e-6,"MEAN_MOTION_DDOT":0},{"OBJECT_NAME":"ONEWEB-0689","OBJECT_ID":"2024-188D","EPOCH":"2025-12-02T06:27:04.434048","MEAN_MOTION":13.11417406,"ECCENTRICITY":0.00013324,"INCLINATION":87.8854,"RA_OF_ASC_NODE":60.2498,"ARG_OF_PERICENTER":101.2736,"MEAN_ANOMALY":258.8542,"EPHEMERIS_TYPE":0,"CLASSIFICATION_TYPE":"U","NORAD_CAT_ID":61597,"ELEMENT_SET_NO":999,"REV_AT_EPOCH":5864,"BSTAR":-0.001530546,"MEAN_MOTION_DOT":-5.3e-6,"MEAN_MOTION_DDOT":0},{"OBJECT_NAME":"ONEWEB-0690","OBJECT_ID":"2024-188E","EPOCH":"2025-12-02T06:41:44.094048","MEAN_MOTION":13.11419546,"ECCENTRICITY":0.0002405,"INCLINATION":87.8879,"RA_OF_ASC_NODE":60.2585,"ARG_OF_PERICENTER":101.8326,"MEAN_ANOMALY":258.3072,"EPHEMERIS_TYPE":0,"CLASSIFICATION_TYPE":"U","NORAD_CAT_ID":61598,"ELEMENT_SET_NO":999,"REV_AT_EPOCH":5882,"BSTAR":-0.00074681087,"MEAN_MOTION_DOT":-2.52e-6,"MEAN_MOTION_DDOT":0},{"OBJECT_NAME":"ONEWEB-0691","OBJECT_ID":"2024-188F","EPOCH":"2025-12-02T06:34:24.025152","MEAN_MOTION":13.11417301,"ECCENTRICITY":0.00016803,"INCLINATION":87.8836,"RA_OF_ASC_NODE":60.1643,"ARG_OF_PERICENTER":118.4211,"MEAN_ANOMALY":241.7086,"EPHEMERIS_TYPE":0,"CLASSIFICATION_TYPE":"U","NORAD_CAT_ID":61599,"ELEMENT_SET_NO":999,"REV_AT_EPOCH":5867,"BSTAR":-0.0019426041,"MEAN_MOTION_DOT":-6.76e-6,"MEAN_MOTION_DDOT":0},{"OBJECT_NAME":"ONEWEB-0692","OBJECT_ID":"2024-188G","EPOCH":"2025-12-02T05:13:50.544768","MEAN_MOTION":13.11418236,"ECCENTRICITY":0.00016338,"INCLINATION":87.886,"RA_OF_ASC_NODE":60.3177,"ARG_OF_PERICENTER":70.6528,"MEAN_ANOMALY":289.4776,"EPHEMERIS_TYPE":0,"CLASSIFICATION_TYPE":"U","NORAD_CAT_ID":61600,"ELEMENT_SET_NO":999,"REV_AT_EPOCH":5865,"BSTAR":0.00099208424,"MEAN_MOTION_DOT":3.64e-6,"MEAN_MOTION_DDOT":0},{"OBJECT_NAME":"ONEWEB-0693","OBJECT_ID":"2024-188H","EPOCH":"2025-12-02T05:12:22.320864","MEAN_MOTION":13.1764815,"ECCENTRICITY":0.00025632,"INCLINATION":87.9112,"RA_OF_ASC_NODE":45.0867,"ARG_OF_PERICENTER":107.4425,"MEAN_ANOMALY":252.6987,"EPHEMERIS_TYPE":0,"CLASSIFICATION_TYPE":"U","NORAD_CAT_ID":61601,"ELEMENT_SET_NO":999,"REV_AT_EPOCH":5994,"BSTAR":1.6683865e-5,"MEAN_MOTION_DOT":1.9e-7,"MEAN_MOTION_DDOT":0},{"OBJECT_NAME":"ONEWEB-0695","OBJECT_ID":"2024-188J","EPOCH":"2025-12-02T06:29:31.004736","MEAN_MOTION":13.11417697,"ECCENTRICITY":0.00012412,"INCLINATION":87.8864,"RA_OF_ASC_NODE":60.2964,"ARG_OF_PERICENTER":87.4508,"MEAN_ANOMALY":272.6762,"EPHEMERIS_TYPE":0,"CLASSIFICATION_TYPE":"U","NORAD_CAT_ID":61602,"ELEMENT_SET_NO":999,"REV_AT_EPOCH":5865,"BSTAR":-0.0013211096,"MEAN_MOTION_DOT":-4.56e-6,"MEAN_MOTION_DDOT":0},{"OBJECT_NAME":"ONEWEB-0697","OBJECT_ID":"2024-188K","EPOCH":"2025-12-02T05:26:03.495840","MEAN_MOTION":13.11418894,"ECCENTRICITY":0.0001732,"INCLINATION":87.886,"RA_OF_ASC_NODE":60.2951,"ARG_OF_PERICENTER":76.0768,"MEAN_ANOMALY":284.0552,"EPHEMERIS_TYPE":0,"CLASSIFICATION_TYPE":"U","NORAD_CAT_ID":61603,"ELEMENT_SET_NO":999,"REV_AT_EPOCH":5863,"BSTAR":0.0015748963,"MEAN_MOTION_DOT":5.71e-6,"MEAN_MOTION_DDOT":0},{"OBJECT_NAME":"ONEWEB-0698","OBJECT_ID":"2024-188L","EPOCH":"2025-12-02T06:44:10.606848","MEAN_MOTION":13.11419115,"ECCENTRICITY":0.00024703,"INCLINATION":87.8861,"RA_OF_ASC_NODE":60.2994,"ARG_OF_PERICENTER":81.0455,"MEAN_ANOMALY":279.0952,"EPHEMERIS_TYPE":0,"CLASSIFICATION_TYPE":"U","NORAD_CAT_ID":61604,"ELEMENT_SET_NO":999,"REV_AT_EPOCH":5866,"BSTAR":-0.00082404763,"MEAN_MOTION_DOT":-2.79e-6,"MEAN_MOTION_DDOT":0},{"OBJECT_NAME":"ONEWEB-0699","OBJECT_ID":"2024-188M","EPOCH":"2025-12-02T05:06:57.066336","MEAN_MOTION":13.10368748,"ECCENTRICITY":0.00016842,"INCLINATION":87.8817,"RA_OF_ASC_NODE":75.526,"ARG_OF_PERICENTER":80.1175,"MEAN_ANOMALY":280.0143,"EPHEMERIS_TYPE":0,"CLASSIFICATION_TYPE":"U","NORAD_CAT_ID":61605,"ELEMENT_SET_NO":999,"REV_AT_EPOCH":5751,"BSTAR":0.00021539352,"MEAN_MOTION_DOT":8.8e-7,"MEAN_MOTION_DDOT":0},{"OBJECT_NAME":"ONEWEB-0700","OBJECT_ID":"2024-188N","EPOCH":"2025-12-02T05:09:20.324448","MEAN_MOTION":13.10369278,"ECCENTRICITY":0.00011057,"INCLINATION":87.8821,"RA_OF_ASC_NODE":75.4103,"ARG_OF_PERICENTER":82.0302,"MEAN_ANOMALY":278.0951,"EPHEMERIS_TYPE":0,"CLASSIFICATION_TYPE":"U","NORAD_CAT_ID":61606,"ELEMENT_SET_NO":999,"REV_AT_EPOCH":5750,"BSTAR":-0.00015748707,"MEAN_MOTION_DOT":-4.2e-7,"MEAN_MOTION_DDOT":0}]
