ONEWEB-0694             
1 56722U 23068N   25336.22631596 -.00000053  00000+0 -17320-3 0  9999
2 56722  87.9048 267.9581 0001361  67.9383 292.1892 13.16594189125856
ONEWEB-0696             
1 56723U 23068P   25336.26025021  .00000035  00000+0  57931-4 0  9995
2 56723  87.8975 298.5244 0002171  81.1734 278.9642 13.15548033123476
ONEWEB-0703             
1 56724U 23068Q   25336.26975990  .00000117  00000+0  27658-3 0  9998
2 56724  87.8973 298.5044 0002817  90.4581 269.6872 13.15548897123361
ONEWEB-0721             
1 56725U 23068R   25336.19793594  .00000107  00000+0  22163-3 0  9994
2 56725  86.6792 148.3537 0001402  91.7447 268.3847 13.22452952131902
ONEWEB-0015             
1 61594U 24188A   25336.23491275  .00000515  00000+0  14167-2 0  9991
2 61594  87.8861  60.3210 0001689 123.9832 236.1457 13.11416431 58645
ONEWEB-0687             
1 61595U 24188B   25336.25235415  .00000123  00000+0  28452-3 0  9994
2 61595  87.9107  45.0597 0001225 114.2100 245.9160 13.17651756 59967
ONEWEB-0688             
1 61596U 24188C   25336.20510413  .00000139  00000+0  32457-3 0  9991
2 61596  87.9113  45.0699 0001909 143.3326 216.7936 13.17648826 59950
ONEWEB-0689             
1 61597U 24188D   25336.26880132 -.00000530  00000+0 -15305-2 0  9995
2 61597  87.8854  60.2498 0001332 101.2736 258.8542 13.11417406 58643
ONEWEB-0690             
1 61598U 24188E   25336.27898257 -.00000252  00000+0 -74681-3 0  9998
2 61598  87.8879  60.2585 0002405 101.8326 258.3072 13.11419546 58821
ONEWEB-0691             
1 61599U 24188F   25336.27388918 -.00000676  00000+0 -19426-2 0  9992
2 61599  87.8836  60.1643 0001680 118.4211 241.7086 13.11417301 58671
ONEWEB-0692             
1 61600U 24188G   25336.21794612  .00000364  00000+0  99208-3 0  9990
2 61600  87.8860  60.3177 0001633  70.6528 289.4776 13.11418236 58654
ONEWEB-0693             
1 61601U 24188H   25336.21692501  .00000019  00000+0  16684-4 0  9990
2 61601  87.9112  45.0867 0002563 107.4425 252.6987 13.17648150 59945
ONEWEB-0695             
1 61602U 24188J   25336.27049774 -.00000456  00000+0 -13211-2 0  9993
2 61602  87.8864  60.2964 0001241  87.4508 272.6762 13.11417697 58651
ONEWEB-0697             
1 61603U 24188K   25336.22642935  .00000571  00000+0  15749-2 0  9991
2 61603  87.8860  60.2951 0001732  76.0768 284.0552 13.11418894 58633
ONEWEB-0698             
1 61604U 24188L   25336.28067832 -.00000279  00000+0 -82405-3 0  9996
2 61604  87.8861  60.2994 0002470  81.0455 279.0952 13.11419115 58669
ONEWEB-0699             
1 61605U 24188M   25336.21316049  .00000088  00000+0  21539-3 0  9994
2 61605  87.8817  75.5260 0001684  80.1175 280.0143 13.10368748 57512
ONEWEB-0700             
1 61606U 24188N   25336.21481857 -.00000042  00000+0 -15749-3 0  9993
2 61606  87.8821  75.4103 0001105  82.0302 278.0951 13.10369278 57506
